{
  "type": "FeatureCollection",
  "features": [
    {
      "type": "Feature",
      "properties": {
        "norad_id": 35744,
        "name": "IRIDIUM 33 DEB",
        "group": "iridium-33-debris",
        "lat": -59.86100482815599,
        "lon": 150.9991647785586,
        "alt_km": 656.5713860995475,
        "timestamp": "2025-12-14T11:29:50.446031+00:00",
        "meta_object_name": "IRIDIUM 33 DEB",
        "meta_object_id": "1997-051RX",
        "meta_epoch": "2025-12-12T09:25:56.133120",
        "meta_mean_motion": 14.7099084,
        "meta_eccentricity": 0.00202544,
        "meta_inclination": 86.3288,
        "meta_ra_of_asc_node": 325.5924,
        "meta_arg_of_pericenter": 193.3769,
        "meta_mean_anomaly": 166.6913,
        "meta_ephemeris_type": 0,
        "meta_classification_type": "U",
        "meta_norad_cat_id": 35744,
        "meta_element_set_no": 999,
        "meta_rev_at_epoch": 87326,
        "meta_bstar": 0.0017280488,
        "meta_mean_motion_dot": 0.00010659,
        "meta_mean_motion_ddot": 0,
        "tle_line1": "1 35744U 97051RX  25346.39301080  .00010659  00000+0  17280-2 0  9999",
        "tle_line2": "2 35744  86.3288 325.5924 0020254 193.3769 166.6913 14.70990840873261"
      },
      "geometry": {
        "type": "Point",
        "coordinates": [
          150.9991647785586,
          -59.86100482815599
        ]
      }
    },
    {
      "type": "Feature",
      "properties": {
        "norad_id": 35797,
        "name": "IRIDIUM 33 DEB",
        "group": "iridium-33-debris",
        "lat": 41.04945627709624,
        "lon": -27.627056961696002,
        "alt_km": 618.919364060619,
        "timestamp": "2025-12-14T11:29:50.446042+00:00",
        "meta_object_name": "IRIDIUM 33 DEB",
        "meta_object_id": "1997-051SF",
        "meta_epoch": "2025-12-12T05:51:50.415264",
        "meta_mean_motion": 14.82743783,
        "meta_eccentricity": 0.00133704,
        "meta_inclination": 86.3362,
        "meta_ra_of_asc_node": 330.2007,
        "meta_arg_of_pericenter": 149.5686,
        "meta_mean_anomaly": 210.6315,
        "meta_ephemeris_type": 0,
        "meta_classification_type": "U",
        "meta_norad_cat_id": 35797,
        "meta_element_set_no": 999,
        "meta_rev_at_epoch": 87333,
        "meta_bstar": 0.0026694194,
        "meta_mean_motion_dot": 0.00021655,
        "meta_mean_motion_ddot": 0,
        "tle_line1": "1 35797U 97051SF  25346.24433351  .00021655  00000+0  26694-2 0  9995",
        "tle_line2": "2 35797  86.3362 330.2007 0013370 149.5686 210.6315 14.82743783873338"
      },
      "geometry": {
        "type": "Point",
        "coordinates": [
          -27.627056961696002,
          41.04945627709624
        ]
      }
    },
    {
      "type": "Feature",
      "properties": {
        "norad_id": 35806,
        "name": "IRIDIUM 33 DEB",
        "group": "iridium-33-debris",
        "lat": -8.486628737480862,
        "lon": -159.59039502961625,
        "alt_km": 711.3872427007709,
        "timestamp": "2025-12-14T11:29:50.446052+00:00",
        "meta_object_name": "IRIDIUM 33 DEB",
        "meta_object_id": "1997-051SQ",
        "meta_epoch": "2025-12-10T20:56:47.284800",
        "meta_mean_motion": 14.5731398,
        "meta_eccentricity": 0.0016091,
        "meta_inclination": 86.344,
        "meta_ra_of_asc_node": 21.4504,
        "meta_arg_of_pericenter": 81.1516,
        "meta_mean_anomaly": 279.1514,
        "meta_ephemeris_type": 0,
        "meta_classification_type": "U",
        "meta_norad_cat_id": 35806,
        "meta_element_set_no": 999,
        "meta_rev_at_epoch": 86297,
        "meta_bstar": 0.0016785,
        "meta_mean_motion_dot": 7.632e-05,
        "meta_mean_motion_ddot": 0,
        "tle_line1": "1 35806U 97051SQ  25344.87276950  .00007632  00000+0  16785-2 0  9992",
        "tle_line2": "2 35806  86.3440  21.4504 0016091  81.1516 279.1514 14.57313980862976"
      },
      "geometry": {
        "type": "Point",
        "coordinates": [
          -159.59039502961625,
          -8.486628737480862
        ]
      }
    },
    {
      "type": "Feature",
      "properties": {
        "norad_id": 35809,
        "name": "IRIDIUM 33 DEB",
        "group": "iridium-33-debris",
        "lat": -52.23629275090443,
        "lon": -30.19620138441402,
        "alt_km": 647.4271907015536,
        "timestamp": "2025-12-14T11:29:50.446063+00:00",
        "meta_object_name": "IRIDIUM 33 DEB",
        "meta_object_id": "1997-051ST",
        "meta_epoch": "2025-12-10T16:35:56.421600",
        "meta_mean_motion": 14.75629145,
        "meta_eccentricity": 0.00097103,
        "meta_inclination": 86.329,
        "meta_ra_of_asc_node": 336.2813,
        "meta_arg_of_pericenter": 251.0565,
        "meta_mean_anomaly": 108.9602,
        "meta_ephemeris_type": 0,
        "meta_classification_type": "U",
        "meta_norad_cat_id": 35809,
        "meta_element_set_no": 999,
        "meta_rev_at_epoch": 86777,
        "meta_bstar": 0.0026432017,
        "meta_mean_motion_dot": 0.00018102,
        "meta_mean_motion_ddot": 0,
        "tle_line1": "1 35809U 97051ST  25344.69162525  .00018102  00000+0  26432-2 0  9991",
        "tle_line2": "2 35809  86.3290 336.2813 0009710 251.0565 108.9602 14.75629145867777"
      },
      "geometry": {
        "type": "Point",
        "coordinates": [
          -30.19620138441402,
          -52.23629275090443
        ]
      }
    },
    {
      "type": "Feature",
      "properties": {
        "norad_id": 35846,
        "name": "IRIDIUM 33 DEB",
        "group": "iridium-33-debris",
        "lat": -65.24796080463304,
        "lon": -113.99729951020123,
        "alt_km": 753.2944397938327,
        "timestamp": "2025-12-14T11:29:50.446073+00:00",
        "meta_object_name": "IRIDIUM 33 DEB",
        "meta_object_id": "1997-051SW",
        "meta_epoch": "2025-12-13T04:24:40.644000",
        "meta_mean_motion": 14.43162618,
        "meta_eccentricity": 0.00189039,
        "meta_inclination": 86.3746,
        "meta_ra_of_asc_node": 58.6513,
        "meta_arg_of_pericenter": 168.4314,
        "meta_mean_anomaly": 191.7326,
        "meta_ephemeris_type": 0,
        "meta_classification_type": "U",
        "meta_norad_cat_id": 35846,
        "meta_element_set_no": 999,
        "meta_rev_at_epoch": 71335,
        "meta_bstar": 0.00090270537,
        "meta_mean_motion_dot": 3.057e-05,
        "meta_mean_motion_ddot": 0,
        "tle_line1": "1 35846U 97051SW  25347.18380375  .00003057  00000+0  90271-3 0  9990",
        "tle_line2": "2 35846  86.3746  58.6513 0018903 168.4314 191.7326 14.43162618713352"
      },
      "geometry": {
        "type": "Point",
        "coordinates": [
          -113.99729951020123,
          -65.24796080463304
        ]
      }
    },
    {
      "type": "Feature",
      "properties": {
        "norad_id": 35848,
        "name": "IRIDIUM 33 DEB",
        "group": "iridium-33-debris",
        "lat": -80.72503373245593,
        "lon": -7.394232310907544,
        "alt_km": 641.3832362403928,
        "timestamp": "2025-12-14T11:29:50.446083+00:00",
        "meta_object_name": "IRIDIUM 33 DEB",
        "meta_object_id": "1997-051SY",
        "meta_epoch": "2025-12-11T20:31:22.881216",
        "meta_mean_motion": 14.78606603,
        "meta_eccentricity": 0.0007707,
        "meta_inclination": 86.3908,
        "meta_ra_of_asc_node": 16.5221,
        "meta_arg_of_pericenter": 192.3234,
        "meta_mean_anomaly": 167.7799,
        "meta_ephemeris_type": 0,
        "meta_classification_type": "U",
        "meta_norad_cat_id": 35848,
        "meta_element_set_no": 999,
        "meta_rev_at_epoch": 66677,
        "meta_bstar": 0.0023841,
        "meta_mean_motion_dot": 0.00017502,
        "meta_mean_motion_ddot": 0,
        "tle_line1": "1 35848U 97051SY  25345.85512594  .00017502  00000+0  23841-2 0  9992",
        "tle_line2": "2 35848  86.3908  16.5221 0007707 192.3234 167.7799 14.78606603666775"
      },
      "geometry": {
        "type": "Point",
        "coordinates": [
          -7.394232310907544,
          -80.72503373245593
        ]
      }
    },
    {
      "type": "Feature",
      "properties": {
        "norad_id": 35850,
        "name": "IRIDIUM 33 DEB",
        "group": "iridium-33-debris",
        "lat": -65.66934452787523,
        "lon": 171.57370492842713,
        "alt_km": 637.407585296547,
        "timestamp": "2025-12-14T11:29:50.446093+00:00",
        "meta_object_name": "IRIDIUM 33 DEB",
        "meta_object_id": "1997-051TA",
        "meta_epoch": "2025-12-06T07:30:15.621984",
        "meta_mean_motion": 14.78601393,
        "meta_eccentricity": 0.00083892,
        "meta_inclination": 86.3487,
        "meta_ra_of_asc_node": 347.1693,
        "meta_arg_of_pericenter": 210.267,
        "meta_mean_anomaly": 149.8067,
        "meta_ephemeris_type": 0,
        "meta_classification_type": "U",
        "meta_norad_cat_id": 35850,
        "meta_element_set_no": 999,
        "meta_rev_at_epoch": 71262,
        "meta_bstar": 0.0028291764,
        "meta_mean_motion_dot": 0.00020775,
        "meta_mean_motion_ddot": 0,
        "tle_line1": "1 35850U 97051TA  25340.31268081  .00020775  00000+0  28292-2 0  9991",
        "tle_line2": "2 35850  86.3487 347.1693 0008389 210.2670 149.8067 14.78601393712623"
      },
      "geometry": {
        "type": "Point",
        "coordinates": [
          171.57370492842713,
          -65.66934452787523
        ]
      }
    }
  ]
}